ID,Address,Suburb,Price,Type,Date,Rooms,Bathroom,Car,LandSize,Age,Latitude,Longitude,train_station_id,distance_to_train_station,travel_min_to_CBD,over_priced?,crime_A_average,crime_B_average,crime_C_average,closest_primary_school,distance_to_closest_primary,primary_school_ranking,closest_secondary_school,distance_to_closest secondary,secondary_school_ranking
ID389978753,9 Rylie La,MARIBYRNONG,680000.0,h,10/09/2016,3,2.0,2.0,225.0,17.0,-37.7699,144.8791,20038,3555.955462390736,22.0,False,824.6666666666666,1890.3333333333333,159.33333333333334,St Margaret's Primary School,1102.5458229546061,216,Maribyrnong Secondary College,1339.205497066623,not ranked
ID549041395,3/26 Middle Rd,MARIBYRNONG,570000.0,t,16/04/2016,2,1.0,2.0,98.0,10.0,-37.7677,144.8925,20038,2356.5418628776497,22.0,False,898.6666666666666,6529.666666666667,480.0,St Margaret's Primary School,156.71147825714098,216,Ave Maria College,1324.0176856548512,111
ID823669568,172 Maribyrnong Rd,MOONEE PONDS,930000.0,h,16/07/2016,3,1.0,1.0,305.0,119.0,-37.7711,144.9122,20038,857.6784226937455,22.0,False,1491.6666666666667,5870.333333333333,432.6666666666667,St Mary's School,315.38822286633166,159,Lowther Hall Anglican Grammar School,1269.550573435692,not ranked
ID181330340,42/2 Horizon Dr,MARIBYRNONG,488000.0,u,16/04/2016,2,2.0,2.0,0.0,9.0,-37.7752,144.8925,20038,2572.9864937823945,22.0,False,824.6666666666666,1890.3333333333333,159.33333333333334,St Margaret's Primary School,933.3840699158123,216,Maribyrnong Secondary College,609.9018674576336,not ranked
ID786745094,27 The Strand,MOONEE PONDS,1250000.0,h,1/07/2017,2,1.0,1.0,450.0,125.0,-37.76121,144.92525,20038,733.2861569452904,22.0,False,817.6666666666666,1779.6666666666667,181.0,St Monica's Primary School,250.2730661773323,484,Lowther Hall Anglican Grammar School,915.8768607984184,not ranked
ID269552799,19/9 Fabian Ct,MARIBYRNONG,408000.0,t,18/06/2016,2,1.0,1.0,85.0,39.0,-37.7732,144.8927,20038,2473.290175733825,22.0,False,1683.6666666666667,8938.666666666666,509.3333333333333,St Margaret's Primary School,716.9109891409098,216,Maribyrnong Secondary College,805.7494095582895,not ranked
ID386609033,29 Winchester St,MOONEE PONDS,1015000.0,h,14/05/2016,2,1.0,1.0,228.0,109.0,-37.7685,144.9183,20038,320.0373082656429,22.0,False,1923.6666666666667,8979.333333333334,620.3333333333334,Moonee Ponds West Primary School,790.5306712915813,not ranked,Lowther Hall Anglican Grammar School,1000.2188800427245,not ranked
ID451417273,99 Eglinton St,MOONEE PONDS,1940000.0,h,8/04/2017,4,2.0,3.0,675.0,99.0,-37.7686,144.912,20038,707.6608368149094,22.0,False,2047.6666666666667,9171.0,742.3333333333334,Moonee Ponds West Primary School,237.7532880886634,not ranked,Lowther Hall Anglican Grammar School,1002.3382356019397,not ranked
ID363592160,16 Bottlebrush Rd,CRAIGIEBURN,565000.0,h,12/08/2017,4,2.0,2.0,482.0,7.0,-37.57416,144.91269,40221,4096.157905331258,49.0,False,684.0,1695.6666666666667,161.0,Newbury Primary School,448.827347672167,not ranked,Mount Ridley P-12 College,1165.8061053333347,432
ID451168523,7 Eve Ct,CRAIGIEBURN,582500.0,h,19/08/2017,3,1.0,0.0,947.0,47.0,-37.59604,144.94021999999995,40221,698.7879628170006,49.0,False,3767.6666666666665,18925.0,2042.3333333333333,Our Lady's School,830.8992992098506,not ranked,Craigieburn Secondary College,1458.62949660446,497
ID700713077,38 Gillard St,BURWOOD,1410000.0,h,18/03/2017,5,2.0,1.0,824.0,69.0,-37.8535,145.1139,19849,2942.6340013807157,28.857142857142858,False,1097.6666666666667,5916.0,553.3333333333334,Mount Scopus Memorial College,777.9939943360629,288,Mount Scopus Memorial College,777.9939943360629,10
ID463717732,1/33 Yeovil Rd,GLEN IRIS,1625000.0,t,10/12/2016,3,2.0,2.0,365.0,39.0,-37.8526,145.0853,19849,436.4599512685785,28.857142857142858,False,83.0,299.6666666666667,13.0,Hartwell Primary School,511.6601333965376,78,Presbyterian Ladies' College,1959.8729849304168,6
ID179161319,1/25 Gardiner Pde,GLEN IRIS,1501000.0,t,27/05/2017,3,2.0,2.0,313.0,24.0,-37.85385,145.06473,19849,1410.240160867414,28.857142857142858,False,298.0,735.0,154.0,St Cecilia's School,418.2583688136922,50,Korowa Anglican Girls' School,1226.1197495563433,13
ID398672870,56 Wills St,GLEN IRIS,920000.0,h,15/10/2016,2,1.0,2.0,334.0,89.0,-37.8577,145.0576,19849,2126.429702022387,28.857142857142858,False,555.6666666666666,1129.0,160.66666666666666,St Roch's School,466.173146627338,131,Korowa Anglican Girls' School,492.3819217467267,13
ID857898399,68 Somers St,BURWOOD,1465500.0,h,8/04/2017,3,2.0,3.0,620.0,7.0,-37.8445,145.1005,19849,1924.9397431687444,28.857142857142858,False,1471.0,7759.666666666667,779.6666666666666,Wattle Park Primary School,344.6815506985735,89,Presbyterian Ladies' College,728.5704594085092,6
ID609573707,2 Oxford St,CAMBERWELL,892000.0,h,8/10/2016,2,1.0,1.0,335.0,59.0,-37.8452,145.0959,19849,1526.930193483961,28.857142857142858,False,2744.3333333333335,10289.666666666666,780.0,Wattle Park Primary School,313.407899660882,89,Presbyterian Ladies' College,1045.0680631594514,6
ID920889732,30 Station St,BURWOOD,1755000.0,h,4/02/2016,3,1.0,1.0,931.0,49.0,-37.854,145.1195,19849,3437.645377489195,28.857142857142858,False,87.33333333333333,252.0,37.0,St Scholastica's School,621.2030925634078,not ranked,Mount Scopus Memorial College,770.263477638347,10
ID661053941,19 Thomas St,CAMBERWELL,2325000.0,h,7/05/2016,3,2.0,2.0,1133.0,89.0,-37.8426,145.0943,19849,1569.9210225843944,28.857142857142858,False,703.6666666666666,1502.0,135.66666666666666,Wattle Park Primary School,269.90258620544336,89,Presbyterian Ladies' College,1298.7307110132544,6
ID462392742,2 Esther St,PRESTON,860000.0,h,27/06/2016,2,2.0,1.0,415.0,94.0,-37.7481,145.0017,20013,313.53568845880227,26.11111111111111,False,824.6666666666666,1890.3333333333333,159.33333333333334,St John's College Preston,277.09298725778183,not ranked,St John's College Preston,277.09298725778183,not ranked
ID557451436,287 Plenty Rd,PRESTON,751000.0,h,3/12/2016,3,1.0,0.0,148.0,69.0,-37.7428,145.0081,20013,763.9555057691305,26.11111111111111,False,1150.6666666666667,7827.0,922.3333333333334,Sacred Heart School,441.95088884382164,203,Preston High School,201.55016553619743,not ranked
ID246551633,24 Dermot St,PRESTON,505000.0,u,22/07/2017,1,1.0,1.0,102.0,19.0,-37.74679,145.01394,20013,1221.0520771918318,26.11111111111111,False,2494.6666666666665,11307.0,1410.0,Preston South Primary School,583.9560518053893,not ranked,Preston High School,880.7930489535192,not ranked
ID432187948,9/561 Spencer St,WEST MELBOURNE,995000.0,u,18/03/2017,3,1.0,1.0,0.0,79.0,-37.8076,144.9474,22239,537.5476050801526,7.0,False,281.6666666666667,524.3333333333334,75.33333333333333,North Melbourne Primary School,1027.289297508145,182,Simonds Catholic College,515.1956313316543,262
ID339673406,47 Barnett St,KENSINGTON,961000.0,h,7/05/2016,3,1.0,1.0,235.0,17.0,-37.7925,144.9323,20041,211.43367801408235,17.0,True,2744.3333333333335,10289.666666666666,780.0,Kensington Primary School,412.5577349111328,116,Kensington Community High School,781.6360098143568,not ranked
ID285228123,65 Gatehouse Dr,KENSINGTON,852000.0,h,3/09/2016,3,1.0,1.0,166.0,19.0,-37.7929,144.9197,20026,895.7376948674049,6.4,False,1970.3333333333333,7567.0,954.6666666666666,Kensington Primary School,696.7242823611339,116,Kensington Community High School,758.9182684622805,not ranked
ID792249457,33 McCracken St,KENSINGTON,1817000.0,h,22/04/2017,4,2.0,1.0,309.0,16.0,-37.791,144.928,20041,380.91364665000935,17.0,False,84.66666666666667,371.6666666666667,13.0,Kensington Primary School,188.95939100811225,116,Kensington Community High School,404.7538178062907,not ranked
ID988469527,55 Epsom Rd,KENSINGTON,1335000.0,h,25/02/2017,3,1.0,3.0,459.0,119.0,-37.7917,144.9251,20041,530.3880221224824,17.0,False,705.3333333333334,5479.666666666667,335.0,Kensington Primary School,246.1809271760012,116,Kensington Community High School,424.08420982020334,not ranked
ID637316039,109 Rankins Rd,KENSINGTON,1234500.0,h,13/08/2016,2,2.0,2.0,169.0,11.0,-37.7922,144.9316,20041,199.7357199979635,17.0,False,2744.3333333333335,10289.666666666666,780.0,Kensington Primary School,354.4303760008001,116,Kensington Community High School,713.3667311214762,not ranked
ID890237473,5 Donne St,COBURG,1090000.0,h,12/11/2016,3,1.0,1.0,464.0,59.0,-37.753,144.9485,19966,1184.189762427392,29.0,False,1540.6666666666667,6062.333333333333,477.6666666666667,St Fidelis' School,443.08164621093437,not ranked,Antonine College,1408.9977245644088,482
ID260299531,50a Rennie St,COBURG,860000.0,h,24/09/2016,2,1.0,1.0,483.0,79.0,-37.7509,144.9696,19966,792.3135493824933,29.0,False,584.3333333333334,2731.6666666666665,211.66666666666666,St Bernard's School,474.0559461234784,479,Coburg High School,1169.8504209206749,79
ID767939640,68 Marks St,COBURG,1400000.0,h,29/07/2017,4,2.0,2.0,426.0,89.0,-37.74892,144.95758999999995,19966,722.8712265562399,29.0,False,1412.0,6364.0,699.3333333333334,St Fidelis' School,540.4524036786152,not ranked,Antonine College,1565.1178540596604,482
ID605124827,44 Saunders St,COBURG,1600000.0,h,3/06/2017,3,2.0,2.0,737.0,89.0,-37.75107,144.95112,19966,1015.8217606319857,29.0,False,885.0,1901.0,227.66666666666666,St Fidelis' School,142.31559597978577,not ranked,Antonine College,1324.3086245112308,482
ID393374582,14 Peveril St,BRUNSWICK,730000.0,h,24/06/2017,2,1.0,0.0,190.0,129.0,-37.75676,144.96286,19966,269.20575292572516,29.0,False,684.0,1695.6666666666667,161.0,Moreland Primary School,371.20839508540445,not ranked,Sydney Road Community School,1442.0331397817833,447
ID886439005,9 Goodman St,BRUNSWICK,955000.0,h,29/04/2017,2,1.0,0.0,1328.0,139.0,-37.7731,144.9568,19969,269.3931463530066,23.0,True,394.3333333333333,1153.6666666666667,165.33333333333334,Brunswick South West Primary School,1201.6827249438631,316,Brunswick Secondary College,291.26776106575085,211
